[{"OBJECT_NAME":"STARLINK-3906","OBJECT_ID":"2022-051BB","EPOCH":"2026-03-09T12:38:53.218176","MEAN_MOTION":15.08836817,"ECCENTRICITY":0.00014948,"INCLINATION":53.2175,"RA_OF_ASC_NODE":119.8095,"ARG_OF_PERICENTER":72.8815,"MEAN_ANOMALY":287.2341,"EPHEMERIS_TYPE":0,"CLASSIFICATION_TYPE":"U","NORAD_CAT_ID":52585,"ELEMENT_SET_NO":999,"REV_AT_EPOCH":21156,"BSTAR":3.6390611e-5,"MEAN_MOTION_DOT":2.91e-6,"MEAN_MOTION_DDOT":0},{"OBJECT_NAME":"FENGYUN 1C DEB","OBJECT_ID":"1999-025FN","EPOCH":"2026-03-09T22:18:23.675616","MEAN_MOTION":14.79879453,"ECCENTRICITY":0.01939452,"INCLINATION":97.9352,"RA_OF_ASC_NODE":118.672,"ARG_OF_PERICENTER":81.3681,"MEAN_ANOMALY":358.3473,"EPHEMERIS_TYPE":0,"CLASSIFICATION_TYPE":"U","NORAD_CAT_ID":29868,"ELEMENT_SET_NO":999,"REV_AT_EPOCH":1584,"BSTAR":0.0007539816,"MEAN_MOTION_DOT":7.789e-5,"MEAN_MOTION_DDOT":0}]
